{
  "name": "SATGUS",
  "line1": "1 62713U 25009DJ  26077.57932500  .00006746  00000+0  54690-3 0  9997",
  "line2": "2 62713  97.7121 159.7596 0005597  71.6219 288.5613 14.99999994 63972",
  "fetched_at": "2026-03-19T00:26:38.152908+00:00"
}